[{"OBJECT_NAME":"STARLINK-32022","OBJECT_ID":"2024-120Q","EPOCH":"2026-03-09T22:20:47.031360","MEAN_MOTION":15.30186576,"ECCENTRICITY":0.00010868,"INCLINATION":53.163,"RA_OF_ASC_NODE":318.7679,"ARG_OF_PERICENTER":80.0998,"MEAN_ANOMALY":280.0126,"EPHEMERIS_TYPE":0,"CLASSIFICATION_TYPE":"U","NORAD_CAT_ID":60149,"ELEMENT_SET_NO":999,"REV_AT_EPOCH":9649,"BSTAR":-3.5144895e-5,"MEAN_MOTION_DOT":-1.399e-5,"MEAN_MOTION_DDOT":0},{"OBJECT_NAME":"USA 120","OBJECT_ID":"1996-029B","EPOCH":"2026-03-09T10:42:29.277216","MEAN_MOTION":13.46042729,"ECCENTRICITY":0.08443543,"INCLINATION":63.3197,"RA_OF_ASC_NODE":93.7012,"ARG_OF_PERICENTER":48.2921,"MEAN_ANOMALY":318.7269,"EPHEMERIS_TYPE":0,"CLASSIFICATION_TYPE":"U","NORAD_CAT_ID":23907,"ELEMENT_SET_NO":999,"REV_AT_EPOCH":9022,"BSTAR":0.00029745642,"MEAN_MOTION_DOT":1.67e-5,"MEAN_MOTION_DDOT":0}]
